ONEWEB-0258             
1 48976U 21060K   24273.64937792 -.00000033  00000+0 -11987-3 0  9994
2 48976  87.9170 353.3841 0001990  98.8271 261.3086 13.16594677157287
ONEWEB-0259             
1 48977U 21060L   24273.64305087 -.00000040  00000+0 -13873-3 0  9995
2 48977  87.9170 353.3699 0002170 100.0020 260.1356 13.16593858157319
ONEWEB-0260             
1 48978U 21060M   24274.24229721 -.00000022  00000+0 -91657-4 0  9990
2 48978  87.9171 353.2803 0001673 116.6389 243.4914 13.16592288158653
ONEWEB-0261             
1 48979U 21060N   24273.67945614 -.00002833  00000+0 -74449-2 0  9993
2 48979  87.9170 353.3882 0002199 114.8247 245.3113 13.16609047157358
ONEWEB-0262             
1 48980U 21060P   24273.66046706  .00000032  00000+0  51324-4 0  9994
2 48980  87.9166 353.3532 0002356 101.5024 258.6372 13.16593871157315
ONEWEB-0263             
1 48981U 21060Q   24273.92012395  .00000081  00000+0  17739-3 0  9996
2 48981  87.9171 353.3215 0002326 106.8933 253.2453 13.16594844158610
ONEWEB-0264             
1 48982U 21060R   24274.18530055 -.00000020  00000+0 -85042-4 0  9992
2 48982  87.9167 353.2790 0001997 102.6693 257.4662 13.16594624158640
ONEWEB-0266             
1 48984U 21060T   24273.67471942  .00000114  00000+0  26536-3 0  9990
2 48984  87.9168 353.3555 0001891  96.6659 263.4687 13.16597081157272
